SAUDISAT 1C (SO-50)     
1 27607U 02058C   26164.64880849  .00000986  00000+0  13345-3 0  9994
2 27607  64.5509 139.9331 0075334 263.1310  96.1222 14.83040079263931
SAUDISAT 2              
1 28371U 04025F   26164.93794338  .00000248  00000+0  66548-4 0  9993
2 28371  98.5507 164.8359 0023713 308.6928  51.2148 14.56682320165274
SAUDISAT 3              
1 31118U 07012B   26164.85857635  .00000238  00000+0  46608-4 0  9990
2 31118  98.1455 115.2569 0013475 235.2858 124.7080 14.71423962 27257
PISAT                   
1 41784U 16059B   26164.94257178  .00000816  00000+0  14659-3 0  9999
2 41784  97.8179 165.5348 0028121 213.4292 146.5139 14.68978670519264
FLYING LAPTOP           
1 42831U 17042G   26164.91927654  .00005338  00000+0  41950-3 0  9994
2 42831  97.4665 320.5786 0019459 132.3226 227.9651 15.01129459485966
SALSAT                  
1 46495U 20068K   26164.94040297  .00008079  00000+0  28292-3 0  9997
2 46495  97.8844 167.8072 0008282 321.8659  38.1993 15.29757675314864
