OBJECT_NAME,OBJECT_ID,EPOCH,MEAN_MOTION,ECCENTRICITY,INCLINATION,RA_OF_ASC_NODE,ARG_OF_PERICENTER,MEAN_ANOMALY,EPHEMERIS_TYPE,CLASSIFICATION_TYPE,NORAD_CAT_ID,ELEMENT_SET_NO,REV_AT_EPOCH,BSTAR,MEAN_MOTION_DOT,MEAN_MOTION_DDOT
SAUDISAT 1C (SO-50),2002-058C,2026-06-13T15:34:17.053536,14.83040079,.00753342,64.5509,139.9331,263.1310,96.1222,0,U,27607,999,26393,.13344754E-3,.986E-5,0
SAUDISAT 2,2004-025F,2026-06-13T22:30:38.308032,14.56682320,.00237139,98.5507,164.8359,308.6928,51.2148,0,U,28371,999,16527,.6654803E-4,.248E-5,0
SAUDISAT 3,2007-012B,2026-06-13T20:36:20.996640,14.71423962,.00134754,98.1455,115.2569,235.2858,124.7080,0,U,31118,999,2725,.46608425E-4,.238E-5,0
PISAT,2016-059B,2026-06-13T22:37:18.201792,14.68978670,.00281217,97.8179,165.5348,213.4292,146.5139,0,U,41784,999,51926,.14659319E-3,.816E-5,0
FLYING LAPTOP,2017-042G,2026-06-13T22:03:45.493056,15.01129459,.00194594,97.4665,320.5786,132.3226,227.9651,0,U,42831,999,48596,.41949675E-3,.5338E-4,0
SALSAT,2020-068K,2026-06-13T22:34:10.816608,15.29757675,.00082821,97.8844,167.8072,321.8659,38.1993,0,U,46495,999,31486,.28291677E-3,.8079E-4,0
